NORAD_CAT_ID,OBJECT_NAME,OBJECT_TYPE,EPOCH,MEAN_MOTION,ECCENTRICITY,INCLINATION,RA_OF_ASC_NODE,ARG_OF_PERICENTER,MEAN_ANOMALY,BSTAR,MEAN_MOTION_DOT,MEAN_MOTION_DDOT,TLE_LINE0,TLE_LINE1,TLE_LINE2,SEMIMAJOR_AXIS,PERIOD,APOGEE,PERIGEE,DECAYED
56466.0,STARLINK-6053,PAYLOAD,2024-03-23 12:25:13,14.98323135,0.0002662,70.0009,150.0537,260.0462,100.0397,-0.00012718,-1.61e-05,0.0,0 STARLINK-6053,1 56466U 23064U   24083.51752040 -.00001610  00000-0 -12718-3 0  9995,2 56466  70.0009 150.0537 0002662 260.0462 100.0397 14.98323135 48339,6950.214,96.107,573.929,570.229,0.0
56466.0,STARLINK-6053,PAYLOAD,2024-03-23 14:01:21,14.98323213,0.0002613,70.0006,149.8849,261.2311,98.8552,-0.00013509,-1.704e-05,0.0,0 STARLINK-6053,1 56466U 23064U   24083.58428101 -.00001704  00000-0 -13509-3 0  9993,2 56466  70.0006 149.8849 0002613 261.2311  98.8552 14.98323213 47984,6950.214,96.107,573.895,570.263,0.0
56466.0,STARLINK-6053,PAYLOAD,2024-03-24 04:26:33,14.98334843,0.0002884,69.9997,148.3696,268.272,91.8109,2.2474e-05,1.75e-06,0.0,0 STARLINK-6053,1 56466U 23064U   24084.18510939  .00000175  00000-0  22474-4 0  9992,2 56466  69.9997 148.3696 0002884 268.2720  91.8109 14.98334843 48438,6950.178,96.107,574.047,570.038,0.0
56466.0,STARLINK-6053,PAYLOAD,2024-03-24 12:27:16,14.98312256,0.000229,70.0014,147.5303,254.4513,105.6393,-0.00014179,-1.783e-05,0.0,0 STARLINK-6053,1 56466U 23064U   24084.51893539 -.00001783  00000-0 -14179-3 0  9999,2 56466  70.0014 147.5303 0002290 254.4513 105.6393 14.98312256 48483,6950.248,96.108,573.704,570.521,0.0
56466.0,STARLINK-6053,PAYLOAD,2024-03-24 14:03:23,14.98318777,0.0002488,70.0011,147.3605,258.7108,101.3771,-7.6354e-05,-1.004e-05,0.0,0 STARLINK-6053,1 56466U 23064U   24084.58568983 -.00001004  00000-0 -76354-4 0  9998,2 56466  70.0011 147.3605 0002488 258.7108 101.3771 14.98318777 48138,6950.228,96.108,573.822,570.363,0.0
56466.0,STARLINK-6053,PAYLOAD,2024-03-24 22:04:02,14.98336504,0.0003074,69.9993,146.5166,278.3387,81.7424,1.7627e-05,1.17e-06,0.0,0 STARLINK-6053,1 56466U 23064U   24084.91947684  .00000117  00000-0  17627-4 0  9994,2 56466  69.9993 146.5166 0003074 278.3387  81.7424 14.98336504 48185,6950.173,96.107,574.174,569.901,0.0
56466.0,STARLINK-6053,PAYLOAD,2024-03-25 04:28:34,14.98334173,0.0003311,69.9985,145.843,270.6689,89.4091,0.00015055,1.704e-05,0.0,0 STARLINK-6053,1 56466U 23064U   24085.18651436  .00001704  00000-0  15055-3 0  9996,2 56466  69.9985 145.8430 0003311 270.6689  89.4091 14.98334173 48585,6950.18,96.107,574.346,569.744,0.0
56466.0,STARLINK-6053,PAYLOAD,2024-03-25 12:29:13,14.98347226,0.0002932,69.9994,145.0014,270.3765,89.7058,0.00033731,3.936e-05,0.0,0 STARLINK-6053,1 56466U 23064U   24085.52029992  .00003936  00000-0  33731-3 0  9990,2 56466  69.9994 145.0014 0002932 270.3765  89.7058 14.98347226 48630,6950.14,96.106,574.042,569.967,0.0
56466.0,STARLINK-6053,PAYLOAD,2024-03-26 04:30:36,14.98305968,0.0003384,69.9993,143.3168,277.8255,82.2519,0.00023426,2.702e-05,0.0,0 STARLINK-6053,1 56466U 23064U   24086.18792542  .00002702  00000-0  23426-3 0  9991,2 56466  69.9993 143.3168 0003384 277.8255  82.2519 14.98305968 48736,6950.267,96.109,574.484,569.78,0.0
56466.0,STARLINK-6053,PAYLOAD,2024-03-26 12:31:17,14.98305679,0.0003471,69.9986,142.4757,282.0758,78.0012,0.00017635,2.01e-05,0.0,0 STARLINK-6053,1 56466U 23064U   24086.52173208  .00002010  00000-0  17635-3 0  9998,2 56466  69.9986 142.4757 0003471 282.0758  78.0012 14.98305679 48421,6950.268,96.109,574.546,569.721,0.0
56466.0,STARLINK-6053,PAYLOAD,2024-03-27 04:32:37,14.98337875,0.0003203,69.9984,140.7916,280.4137,79.6661,-0.00020174,-2.5e-05,0.0,0 STARLINK-6053,1 56466U 23064U   24087.18932478 -.00002500  00000-0 -20174-3 0  9991,2 56466  69.9984 140.7916 0003203 280.4137  79.6661 14.98337875 48883,6950.169,96.106,574.26,569.807,0.0
56466.0,STARLINK-6053,PAYLOAD,2024-03-27 12:33:17,14.98346714,0.000306,69.9989,139.9517,276.6763,83.4048,-0.0001128,-1.439e-05,0.0,0 STARLINK-6053,1 56466U 23064U   24087.52311471 -.00001439  00000-0 -11280-3 0  9991,2 56466  69.9989 139.9517 0003060 276.6763  83.4048 14.98346714 48938,6950.141,96.106,574.133,569.879,0.0
56466.0,STARLINK-6053,PAYLOAD,2024-03-27 20:33:56,14.98353765,0.0002833,69.9996,139.1109,277.2728,82.8109,-0.00019577,-2.43e-05,0.0,0 STARLINK-6053,1 56466U 23064U   24087.85690919 -.00002430  00000-0 -19577-3 0  9993,2 56466  69.9996 139.1109 0002833 277.2728  82.8109 14.98353765 48621,6950.119,96.105,573.953,570.015,0.0
56466.0,STARLINK-6053,PAYLOAD,2024-03-28 12:35:17,14.98338362,0.0003016,69.9991,137.4272,278.7828,81.2989,0.00023803,2.749e-05,0.0,0 STARLINK-6053,1 56466U 23064U   24088.52450478  .00002749  00000-0  23803-3 0  9990,2 56466  69.9991 137.4272 0003016 278.7828  81.2989 14.98338362 49085,6950.167,96.106,574.128,569.936,0.0
56466.0,STARLINK-6053,PAYLOAD,2024-03-28 20:35:58,14.98331213,0.0003429,69.9988,136.5837,274.3167,85.76,7.7946e-05,8.37e-06,0.0,0 STARLINK-6053,1 56466U 23064U   24088.85831069  .00000837  00000-0  77946-4 0  9999,2 56466  69.9988 136.5837 0003429 274.3167  85.7600 14.98331213 49137,6950.189,96.107,574.437,569.671,0.0
56466.0,STARLINK-6053,PAYLOAD,2024-03-29 04:36:38,14.9830639,0.0002452,70.0013,135.7427,273.8055,86.2824,0.00037882,4.427e-05,0.0,0 STARLINK-6053,1 56466U 23064U   24089.19211694  .00004427  00000-0  37882-3 0  9996,2 56466  70.0013 135.7427 0002452 273.8055  86.2824 14.98306390 49187,6950.266,96.109,573.835,570.427,0.0
56466.0,STARLINK-6053,PAYLOAD,2024-03-29 12:37:19,14.98332352,0.0002896,69.9996,134.9024,276.2531,83.8298,-6.4519e-05,-8.63e-06,0.0,0 STARLINK-6053,1 56466U 23064U   24089.52591469 -.00000863  00000-0 -64519-4 0  9994,2 56466  69.9996 134.9024 0002896 276.2531  83.8298 14.98332352 49237,6950.186,96.107,574.063,570.038,0.0
56466.0,STARLINK-6053,PAYLOAD,2024-03-29 20:37:58,14.98342689,0.0002964,69.9996,134.0603,275.8389,84.2432,4.3838e-06,-4.1e-07,0.0,0 STARLINK-6053,1 56466U 23064U   24089.85970434 -.00000041  00000-0  43838-5 0  9992,2 56466  69.9996 134.0603 0002964 275.8389  84.2432 14.98342689 49287,6950.154,96.106,574.079,569.959,0.0
56466.0,STARLINK-6053,PAYLOAD,2024-03-30 12:39:18,14.98348812,0.0003002,69.9992,132.3766,275.3319,84.7497,1.3816e-05,7.2e-07,0.0,0 STARLINK-6053,1 56466U 23064U   24090.52729274  .00000072  00000-0  13816-4 0  9997,2 56466  69.9992 132.3766 0003002 275.3319  84.7497 14.98348812 49028,6950.135,96.106,574.086,569.913,0.0
56466.0,STARLINK-6053,PAYLOAD,2024-03-30 20:39:59,14.98336892,0.0002816,69.9998,131.5362,279.9809,80.1032,-0.00010796,-1.381e-05,0.0,0 STARLINK-6053,1 56466U 23064U   24090.86110177 -.00001381  00000-0 -10796-3 0  9999,2 56466  69.9998 131.5362 0002816 279.9809  80.1032 14.98336892 49438,6950.172,96.107,573.994,570.079,0.0
56466.0,STARLINK-6053,PAYLOAD,2024-03-31 04:40:39,14.98324529,0.0002861,69.999,130.6933,270.088,89.9951,-9.4127e-06,-2.05e-06,0.0,0 STARLINK-6053,1 56466U 23064U   24091.19490646 -.00000205  00000-0 -94127-5 0  9994,2 56466  69.9990 130.6933 0002861 270.0880  89.9951 14.98324529 49481,6950.21,96.107,574.063,570.086,0.0
56466.0,STARLINK-6053,PAYLOAD,2024-03-31 12:41:20,14.9831964,0.0002998,69.9995,129.8526,273.3147,86.7669,-1.5459e-05,-2.77e-06,0.0,0 STARLINK-6053,1 56466U 23064U   24091.52871085 -.00000277  00000-0 -15459-4 0  9990,2 56466  69.9995 129.8526 0002998 273.3147  86.7669 14.98319640 49172,6950.225,96.108,574.174,570.006,0.0
56466.0,STARLINK-6053,PAYLOAD,2024-04-01 03:06:32,14.9833619,0.0003109,69.9987,128.3379,271.0258,89.0545,-9.563e-05,-1.234e-05,0.0,0 STARLINK-6053,1 56466U 23064U   24092.12954163 -.00001234  00000-0 -95630-4 0  9999,2 56466  69.9987 128.3379 0003109 271.0258  89.0545 14.98336190 49624,6950.174,96.107,574.2,569.878,0.0
56466.0,STARLINK-6053,PAYLOAD,2024-04-01 12:43:20,14.98337177,0.0002983,69.9991,127.3274,272.3728,87.7089,-8.5107e-05,-1.109e-05,0.0,0 STARLINK-6053,1 56466U 23064U   24092.53009943 -.00001109  00000-0 -85107-4 0  9990,2 56466  69.9991 127.3274 0002983 272.3728  87.7089 14.98337177 49328,6950.171,96.107,574.109,569.962,0.0
56466.0,STARLINK-6053,PAYLOAD,2024-04-01 19:07:52,14.98349181,0.0003092,69.999,126.6545,252.6733,107.4088,-0.00035013,-4.27e-05,0.0,0 STARLINK-6053,1 56466U 23064U   24092.79713538 -.00004270  00000-0 -35013-3 0  9992,2 56466  69.9990 126.6545 0003092 252.6733 107.4088 14.98349181 49720,6950.134,96.106,574.148,569.85,0.0
56466.0,STARLINK-6053,PAYLOAD,2024-04-02 03:08:33,14.98324123,0.0003095,69.9987,125.8126,269.8507,90.2297,6.5202e-05,6.85e-06,0.0,0 STARLINK-6053,1 56466U 23064U   24093.13094288  .00000685  00000-0  65202-4 0  9993,2 56466  69.9987 125.8126 0003095 269.8507  90.2297 14.98324123 49779,6950.211,96.107,574.227,569.925,0.0
56466.0,STARLINK-6053,PAYLOAD,2024-04-02 11:09:13,14.98324376,0.0003105,69.9986,124.971,269.3831,90.6972,5.398e-05,5.51e-06,0.0,0 STARLINK-6053,1 56466U 23064U   24093.46474402  .00000551  00000-0  53980-4 0  9991,2 56466  69.9986 124.9710 0003105 269.3831  90.6972 14.98324376 49464,6950.21,96.107,574.233,569.917,0.0
56466.0,STARLINK-6053,PAYLOAD,2024-04-02 19:09:54,14.98325687,0.0003118,69.9986,124.1293,269.6444,90.4358,2.6401e-05,2.22e-06,0.0,0 STARLINK-6053,1 56466U 23064U   24093.79854472  .00000222  00000-0  26401-4 0  9999,2 56466  69.9986 124.1293 0003118 269.6444  90.4358 14.98325687 49517,6950.206,96.107,574.238,569.904,0.0
56466.0,STARLINK-6053,PAYLOAD,2024-04-03 03:10:34,14.98329611,0.0003073,69.9986,123.2876,268.6681,91.4126,-2.7542e-05,-4.22e-06,0.0,0 STARLINK-6053,1 56466U 23064U   24094.13234420 -.00000422  00000-0 -27542-4 0  9994,2 56466  69.9986 123.2876 0003073 268.6681  91.4126 14.98329611 49926,6950.194,96.107,574.195,569.923,0.0
56466.0,STARLINK-6053,PAYLOAD,2024-04-03 12:47:23,14.98328312,0.0003104,69.9985,122.2775,269.0449,91.0355,-3.8544e-05,-5.53e-06,0.0,0 STARLINK-6053,1 56466U 23064U   24094.53290554 -.00000553  00000-0 -38544-4 0  9997,2 56466  69.9985 122.2775 0003104 269.0449  91.0355 14.98328312 49628,6950.198,96.107,574.22,569.906,0.0
